DMSP 5D-3 F16 (USA 172) 
1 28054U 03048A   26062.98838062  .00000199  00000+0  12750-3 0  9990
2 28054  98.9997  86.0725 0008202  86.8106  23.1171 14.14459516154613
METEOSAT-9 (MSG-2)      
1 28912U 05049B   26062.59556743  .00000114  00000+0  00000+0 0  9994
2 28912   9.1231  55.1899 0001832 221.0140 145.2732  1.00276803  5940
DMSP 5D-3 F17 (USA 191) 
1 29522U 06050A   26062.95027311  .00000244  00000+0  14859-3 0  9994
2 29522  98.7412  71.6621 0010082   3.3873 356.7368 14.14961025997535
FENGYUN 3A              
1 32958U 08026A   26062.81450664  .00000156  00000+0  94661-4 0  9994
2 32958  98.6791   5.6746 0009811  73.3930 286.8323 14.19544298920450
GOES 14                 
1 35491U 09033A   26062.82475610  .00000116  00000+0  00000+0 0  9992
2 35491   1.4174  84.4300 0002213 297.3554 278.8486  1.00124030  5530
DMSP 5D-3 F18 (USA 210) 
1 35951U 09057A   26062.91339995  .00000358  00000+0  20876-3 0  9999
2 35951  98.8955  43.9623 0010795 184.8078 175.2993 14.14831661844708
EWS-G2 (GOES 15)        
1 36411U 10008A   26062.95564993  .00000008  00000+0  00000+0 0  9996
2 36411   1.0080  85.1578 0001805  21.3342 102.7379  1.00269324 58581
COMS 1                  
1 36744U 10032A   26062.96839000 -.00000355  00000+0  00000+0 0  9993
2 36744   4.5347  76.8758 0001187 278.6079 283.0302  1.00272871 50030
FENGYUN 3B              
1 37214U 10059A   26062.93982244 -.00000173  00000+0 -65913-4 0  9999
2 37214  98.9779 108.4411 0022990 123.6957 336.8098 14.14814414792548
SUOMI NPP               
1 37849U 11061A   26062.96347964  .00000121  00000+0  78397-4 0  9995
2 37849  98.7864   4.6119 0000428 286.0376  74.0753 14.19541660743515
METEOSAT-10 (MSG-3)     
1 38552U 12035B   26062.80044853 -.00000015  00000+0  00000+0 0  9997
2 38552   4.4223  61.4660 0002501 294.0063  94.5172  1.00277243 49800
METOP-B                 
1 38771U 12049A   26062.95453932  .00000155  00000+0  91007-4 0  9999
2 38771  98.6653 116.4862 0001216 297.7518  62.3536 14.21442476698319
INSAT-3D                
1 39216U 13038B   26062.96873667 -.00000351  00000+0  00000+0 0  9992
2 39216   1.6544  83.9201 0001771 240.8778 315.1496  1.00273595 46021
FENGYUN 3C              
1 39260U 13052A   26062.95117252  .00000157  00000+0  10112-3 0  9999
2 39260  98.4882  41.7163 0014108 330.4926  29.5451 14.15726814643675
METEOR-M 2              
1 40069U 14037A   26062.91124902  .00000301  00000+0  15719-3 0  9997
2 40069  98.5011  42.4353 0005692 354.6914   5.4203 14.21426434604364
HIMAWARI-8              
1 40267U 14060A   26062.97090335 -.00000289  00000+0  00000+0 0  9990
2 40267   0.0335 250.8339 0000781  74.2519 326.8113  1.00272003 41707
FENGYUN 2G              
1 40367U 14090A   26062.96284331 -.00000313  00000+0  00000+0 0  9992
2 40367   5.3729  74.0915 0001937 152.9440  20.9763  1.00274673 40943
